NORAD_CAT_ID,OBJECT_NAME,OBJECT_TYPE,EPOCH,MEAN_MOTION,ECCENTRICITY,INCLINATION,RA_OF_ASC_NODE,ARG_OF_PERICENTER,MEAN_ANOMALY,BSTAR,MEAN_MOTION_DOT,MEAN_MOTION_DDOT,TLE_LINE0,TLE_LINE1,TLE_LINE2,SEMIMAJOR_AXIS,PERIOD,APOGEE,PERIGEE,DECAYED
53147.0,STARLINK-4094,PAYLOAD,2022-10-17 22:00:00,15.08868611,0.0002301,53.2178,335.1777,32.9318,194.1698,-0.0060351999999999,-0.00095151,0.0,0 STARLINK-4094,1 53147U 22083R   22290.91667824 -.00095151  00000-0 -60352-2 0  9994,2 53147  53.2178 335.1777 0002301  32.9318 194.1698 15.08868611  1309,6917.793000000002,95.436,541.25,538.066,0.0
53147.0,STARLINK-4094,PAYLOAD,2022-10-18 06:00:00,15.08777845,0.0002394,53.2176,333.6838,34.4021,204.2932,0.0055948,0.00089737,0.0,0 STARLINK-4094,1 53147U 22083R   22291.25001157  .00089737  00000-0  55948-2 0  9999,2 53147  53.2176 333.6838 0002394  34.4021 204.2932 15.08777845 14887,6918.07,95.441,541.592,538.279,0.0
53147.0,STARLINK-4094,PAYLOAD,2022-10-18 14:00:01,15.08800332,0.0002421999999999,53.2181,332.1838,29.3858,220.858,0.0035078,0.00055922,0.0,0 STARLINK-4094,1 53147U 22083R   22291.58334491  .00055922  00000-0  35078-2 0  9996,2 53147  53.2181 332.1838 0002422  29.3858 220.8580 15.08800332 14937,6918.002,95.44,541.5419999999998,538.191,0.0
53147.0,STARLINK-4094,PAYLOAD,2022-10-18 22:00:00,15.08817342,0.0002211999999999,53.2183,330.6858,32.2846,229.5387,0.0023819,0.00037801,0.0,0 STARLINK-4094,1 53147U 22083R   22291.91667824  .00037801  00000-0  23819-2 0  9998,2 53147  53.2183 330.6858 0002212  32.2846 229.5387 15.08817342  1308,6917.95,95.439,541.345,538.284,0.0
53147.0,STARLINK-4094,PAYLOAD,2022-10-19 06:00:00,15.08856855,0.0002265,53.2183,329.1902,33.559,239.8419,-0.00096683,-0.0001564999999999,0.0,0 STARLINK-4094,1 53147U 22083R   22292.25001157 -.00015650  00000-0 -96683-3 0  9997,2 53147  53.2183 329.1902 0002265  33.5590 239.8419 15.08856855 15036,6917.829000000002,95.436,541.261,538.127,0.0
53147.0,STARLINK-4094,PAYLOAD,2022-10-19 14:00:01,15.08845178,0.0002413,53.2179,327.6949,29.92,255.0899,0.00049358,7.577e-05,0.0,0 STARLINK-4094,1 53147U 22083R   22292.58334491  .00007577  00000-0  49358-3 0  9997,2 53147  53.2179 327.6949 0002413  29.9200 255.0899 15.08845178  1300,6917.865,95.437,541.399,538.06,0.0
53147.0,STARLINK-4094,PAYLOAD,2022-10-19 22:00:00,15.08833828,0.0002251,53.2178,326.1997,31.1611,265.4731,-0.00017055,-3.001e-05,0.0,0 STARLINK-4094,1 53147U 22083R   22292.91667824 -.00003001  00000-0 -17055-3 0  9992,2 53147  53.2178 326.1997 0002251  31.1611 265.4731 15.08833828  1306,6917.899,95.438,541.321,538.207,0.0
53147.0,STARLINK-4094,PAYLOAD,2022-10-20 06:00:00,15.08861332,0.0002237,53.218,324.7015,32.5757,275.636,-0.0012067,-0.00019453,0.0,0 STARLINK-4094,1 53147U 22083R   22293.25001157 -.00019453  00000-0 -12067-2 0  9996,2 53147  53.2180 324.7015 0002237  32.5757 275.6360 15.08861332 15187,6917.815,95.436,541.2280000000002,538.133,0.0
53147.0,STARLINK-4094,PAYLOAD,2022-10-20 14:00:01,15.08845782,0.0002381999999999,53.2173,323.2069,28.8159,291.0088,-0.00038855,-6.468e-05,0.0,0 STARLINK-4094,1 53147U 22083R   22293.58334491 -.00006468  00000-0 -38855-3 0  9998,2 53147  53.2173 323.2069 0002382  28.8159 291.0088 15.08845782  1306,6917.863,95.437,541.376,538.08,0.0
53147.0,STARLINK-4094,PAYLOAD,2022-10-20 22:00:00,15.08808338,0.0002129,53.2174,321.7088,31.9511,299.4696,0.0030423,0.00048422,0.0,0 STARLINK-4094,1 53147U 22083R   22293.91667824  .00048422  00000-0  30423-2 0  9990,2 53147  53.2174 321.7088 0002129  31.9511 299.4696 15.08808338  1300,6917.977,95.44,541.315,538.369,0.0
53147.0,STARLINK-4094,PAYLOAD,2022-10-21 14:00:01,15.08857625,0.0002379999999999,53.2167,318.7179,28.7622,325.847,-0.0008218,-0.0001335,0.0,0 STARLINK-4094,1 53147U 22083R   22294.58334491 -.00013350  00000-0 -82180-3 0  9997,2 53147  53.2167 318.7179 0002380  28.7622 325.8470 15.08857625  1302,6917.8269999999975,95.436,541.3380000000002,538.045,0.0
53147.0,STARLINK-4094,PAYLOAD,2022-10-21 22:00:00,15.0880718,0.0002129,53.2166,317.2189,31.5487,334.6757,0.0033689999999999,0.00053691,0.0,0 STARLINK-4094,1 53147U 22083R   22294.91667824  .00053691  00000-0  33690-2 0  9994,2 53147  53.2166 317.2189 0002129  31.5487 334.6757 15.08807180  1305,6917.981,95.44,541.319,538.373,0.0
53147.0,STARLINK-4094,PAYLOAD,2022-10-22 14:00:01,15.08851503,0.0002394,53.2161,314.2278,27.8858,1.5126,-0.0015984,-0.00025646,0.0,0 STARLINK-4094,1 53147U 22083R   22295.58334491 -.00025646  00000-0 -15984-2 0  9996,2 53147  53.2161 314.2278 0002394  27.8858   1.5126 15.08851503  1308,6917.845,95.437,541.366,538.054,0.0
53147.0,STARLINK-4094,PAYLOAD,2022-10-22 22:00:00,15.08808833,0.0002163,53.2161,312.7296,30.9704,10.041,0.0038110999999999,0.00060838,0.0,0 STARLINK-4094,1 53147U 22083R   22295.91667824  .00060838  00000-0  38111-2 0  9999,2 53147  53.2161 312.7296 0002163  30.9704  10.0410 15.08808833  1309,6917.976,95.44,541.337,538.344,0.0
53147.0,STARLINK-4094,PAYLOAD,2022-10-23 14:00:01,15.08869366,0.0002459,53.216,309.7383,27.9672,36.2345,-0.0018593,-0.00029783,0.0,0 STARLINK-4094,1 53147U 22083R   22296.58334491 -.00029783  00000-0 -18593-2 0  9992,2 53147  53.2160 309.7383 0002459  27.9672  36.2345 15.08869366  1304,6917.791,95.436,541.357,537.955,0.0
53147.0,STARLINK-4094,PAYLOAD,2022-10-23 22:00:00,15.08827293,0.0002259,53.2162,308.2401,31.0893,44.7384,0.0011145,0.00017488,0.0,0 STARLINK-4094,1 53147U 22083R   22296.91667824  .00017488  00000-0  11145-2 0  9991,2 53147  53.2162 308.2401 0002259  31.0893  44.7384 15.08827293  1300,6917.919,95.438,541.347,538.221,0.0
53147.0,STARLINK-4094,PAYLOAD,2022-10-24 14:00:01,15.08799352,0.0002528999999999,53.2162,305.2487,28.2733,70.7052,0.00052273,8.032e-05,0.0,0 STARLINK-4094,1 53147U 22083R   22297.58334491  .00008032  00000-0  52273-3 0  9999,2 53147  53.2162 305.2487 0002529  28.2733  70.7052 15.08799352  1307,6918.005,95.44,541.619,538.12,0.0
53147.0,STARLINK-4094,PAYLOAD,2022-10-24 22:00:00,15.08785689,0.000233,53.2165,303.7506,32.0859,78.4499,0.0032083,0.00051067,0.0,0 STARLINK-4094,1 53147U 22083R   22297.91667824  .00051067  00000-0  32083-2 0  9997,2 53147  53.2165 303.7506 0002330  32.0859  78.4499 15.08785689  1305,6918.045999999999,95.441,541.523,538.299,0.0
53147.0,STARLINK-4094,PAYLOAD,2022-10-25 14:00:01,15.08828281,0.0002613,53.2166,300.7592,30.8683,102.7822,-8.4034e-05,-1.625e-05,0.0,0 STARLINK-4094,1 53147U 22083R   22298.58334491 -.00001625  00000-0 -84034-4 0  9994,2 53147  53.2166 300.7592 0002613  30.8683 102.7822 15.08828281  1300,6917.916,95.438,541.589,537.974,0.0
53147.0,STARLINK-4094,PAYLOAD,2022-10-25 22:00:01,15.08812583,0.0002411,53.2169,299.2611,34.7323,110.5676,0.0029222,0.00046492,0.0,0 STARLINK-4094,1 53147U 22083R   22298.91668981  .00046492  00000-0  29222-2 0  9990,2 53147  53.2169 299.2611 0002411  34.7323 110.5676 15.08812583  1309,6917.964,95.439,541.497,538.161,0.0
53147.0,STARLINK-4094,PAYLOAD,2022-10-26 14:00:01,15.0885595,0.0002643,53.2168,296.2696,33.1892,135.2212,-0.0006025,-9.869e-05,0.0,0 STARLINK-4094,1 53147U 22083R   22299.58334491 -.00009869  00000-0 -60250-3 0  9996,2 53147  53.2168 296.2696 0002643  33.1892 135.2212 15.08855950  1304,6917.831999999999,95.437,541.525,537.868,0.0
53147.0,STARLINK-4094,PAYLOAD,2022-10-26 22:00:00,15.08858226,0.0002483,53.2172,294.7756,37.9691,142.049,0.0010895999999999,0.00017104,0.0,0 STARLINK-4094,1 53147U 22083R   22299.91667824  .00017104  00000-0  10896-2 0  9991,2 53147  53.2172 294.7756 0002483  37.9691 142.0490 15.08858226  1303,6917.825,95.436,541.4069999999998,537.972,0.0
53147.0,STARLINK-4094,PAYLOAD,2022-10-27 14:00:01,15.08856543,0.0002558,53.2169,291.78,33.4105,169.8883,-0.00091287,-0.00014795,0.0,0 STARLINK-4094,1 53147U 22083R   22300.58335648 -.00014795  00000-0 -91287-3 0  9992,2 53147  53.2169 291.7800 0002558  33.4105 169.8883 15.08856543 16297,6917.83,95.437,541.464,537.925,0.0
53147.0,STARLINK-4094,PAYLOAD,2022-10-27 22:00:00,15.08846023,0.0002356999999999,53.217,290.2824,37.3091,177.5366,0.0013943,0.00021976,0.0,0 STARLINK-4094,1 53147U 22083R   22300.91667824  .00021976  00000-0  13943-2 0  9992,2 53147  53.2170 290.2824 0002357  37.3091 177.5366 15.08846023  1303,6917.861999999999,95.437,541.3580000000002,538.096,0.0
53147.0,STARLINK-4094,PAYLOAD,2022-10-28 14:00:01,15.08867623,0.000244,53.2167,287.2908,32.5135,205.6122,-0.0040601,-0.0006437999999999,0.0,0 STARLINK-4094,1 53147U 22083R   22301.58335648 -.00064380  00000-0 -40601-2 0  9991,2 53147  53.2167 287.2908 0002440  32.5135 205.6122 15.08867623  1309,6917.795999999999,95.436,541.349,537.9730000000002,0.0
53147.0,STARLINK-4094,PAYLOAD,2022-10-28 22:00:01,15.08817596,0.0002254,53.2168,285.7933,35.8662,213.8618,0.0026092,0.00041457,0.0,0 STARLINK-4094,1 53147U 22083R   22301.91668981  .00041457  00000-0  26092-2 0  9993,2 53147  53.2168 285.7933 0002254  35.8662 213.8618 15.08817596  1300,6917.949000000001,95.439,541.373,538.255,0.0
53147.0,STARLINK-4094,PAYLOAD,2022-10-29 08:00:01,15.08824605,0.0002458,53.2168,283.925,32.8696,321.2951,0.0011137,0.00017474,0.0,0 STARLINK-4094,1 53147U 22083R   22302.33334491  .00017474  00000-0  11137-2 0  9992,2 53147  53.2168 283.9250 0002458  32.8696 321.2951 15.08824605 16569,6917.927,95.439,541.493,538.092,0.0
53147.0,STARLINK-4094,PAYLOAD,2022-10-29 12:00:00,15.08830088,0.000244,53.2164,283.1764,31.3959,148.5591,0.0013543,0.00021326,0.0,0 STARLINK-4094,1 53147U 22083R   22302.50001157  .00021326  00000-0  13543-2 0  9995,2 53147  53.2164 283.1764 0002440  31.3959 148.5591 15.08830088  1302,6917.911,95.438,541.464,538.0880000000002,0.0
53147.0,STARLINK-4094,PAYLOAD,2022-10-29 22:00:01,15.0884975,0.0002208,53.2165,281.3043,36.1287,248.3866,0.0016599,0.00026236,0.0,0 STARLINK-4094,1 53147U 22083R   22302.91668981  .00026236  00000-0  16599-2 0  9993,2 53147  53.2165 281.3043 0002208  36.1287 248.3866 15.08849750  1302,6917.851,95.437,541.243,538.188,0.0
